[{"OBJECT_NAME":"STARLINK-35630","OBJECT_ID":"2025-237T","EPOCH":"2026-03-09T07:40:35.894496","MEAN_MOTION":15.30196359,"ECCENTRICITY":0.00015874,"INCLINATION":53.1613,"RA_OF_ASC_NODE":41.3639,"ARG_OF_PERICENTER":83.842,"MEAN_ANOMALY":276.2762,"EPHEMERIS_TYPE":0,"CLASSIFICATION_TYPE":"U","NORAD_CAT_ID":66131,"ELEMENT_SET_NO":999,"REV_AT_EPOCH":2255,"BSTAR":0.0010811744,"MEAN_MOTION_DOT":0.00031796,"MEAN_MOTION_DDOT":0},{"OBJECT_NAME":"FENGYUN 1C DEB","OBJECT_ID":"1999-025DFQ","EPOCH":"2026-03-09T11:05:09.183840","MEAN_MOTION":15.08584918,"ECCENTRICITY":0.01333512,"INCLINATION":99.3393,"RA_OF_ASC_NODE":158.3034,"ARG_OF_PERICENTER":18.9579,"MEAN_ANOMALY":341.654,"EPHEMERIS_TYPE":0,"CLASSIFICATION_TYPE":"U","NORAD_CAT_ID":33679,"ELEMENT_SET_NO":999,"REV_AT_EPOCH":95428,"BSTAR":0.0014594523,"MEAN_MOTION_DOT":0.00028083,"MEAN_MOTION_DDOT":0}]
